[{"OBJECT_NAME":"STARLINK-35530","OBJECT_ID":"2025-225M","EPOCH":"2026-03-09T13:14:04.840224","MEAN_MOTION":15.3016779,"ECCENTRICITY":0.00013076,"INCLINATION":53.1584,"RA_OF_ASC_NODE":166.5546,"ARG_OF_PERICENTER":62.5628,"MEAN_ANOMALY":297.5505,"EPHEMERIS_TYPE":0,"CLASSIFICATION_TYPE":"U","NORAD_CAT_ID":65921,"ELEMENT_SET_NO":999,"REV_AT_EPOCH":2438,"BSTAR":0.0010076506,"MEAN_MOTION_DOT":0.00029574,"MEAN_MOTION_DDOT":0},{"OBJECT_NAME":"OKEAN-1","OBJECT_ID":"1988-056A","EPOCH":"2026-03-09T21:19:04.260000","MEAN_MOTION":15.31672069,"ECCENTRICITY":0.00129431,"INCLINATION":82.4671,"RA_OF_ASC_NODE":262.7586,"ARG_OF_PERICENTER":168.0696,"MEAN_ANOMALY":192.0855,"EPHEMERIS_TYPE":0,"CLASSIFICATION_TYPE":"U","NORAD_CAT_ID":19274,"ELEMENT_SET_NO":999,"REV_AT_EPOCH":3511,"BSTAR":0.00038371192,"MEAN_MOTION_DOT":0.00011798,"MEAN_MOTION_DDOT":0}]
